     2.100          NAVIGATION                              RINEX VERSION / TYPE
fic2rin                                 01/05/2011 00:19:16 PGM / RUN BY / DATE
                                                            END OF HEADER
11 11  1  4 18  0  0.0 -.116662587970D-03 -.295585778076D-11  .000000000000D+00
     .490000000000D+02  .246562500000D+02  .666063458502D-08 -.278345080270D+01
     .107102096081D-05  .115786355454D-01  .450201332569D-05  .515348191452D+04
     .237600000000D+06  .132247805595D-06  .139354516684D+01 -.199303030968D-06
     .887580665195D+00  .252937500000D+03  .901884115573D+00 -.889679915882D-08
     .386801826134D-09  .100000000000D+01  .161700000000D+04  .000000000000D+00
     .240000000000D+01  .000000000000D+00 -.116415321827D-07  .490000000000D+02
     .230406000000D+06  .400000000000D+01
13 11  1  4 18  0  0.0  .286963302642D-03 -.125055521494D-11  .000000000000D+00
     .106000000000D+03  .136593750000D+03  .368479634370D-08 -.296713698379D+00
     .702776014805D-05  .436441146303D-02  .735186040401D-05  .515366477966D+04
     .237600000000D+06 -.931322574615D-07 -.247267945344D+01  .242143869400D-07
     .991277901629D+00  .254906250000D+03  .179157625286D+01 -.771282126996D-08
     .147148986489D-09  .100000000000D+01  .161700000000D+04  .000000000000D+00
     .340000000000D+01  .000000000000D+00 -.107102096081D-07  .106000000000D+03
     .230406000000D+06  .400000000000D+01
14 11  1  4 18  0  0.0  .121169257909D-03  .306954461848D-11  .000000000000D+00
     .860000000000D+02  .126687500000D+03  .389980529969D-08 -.345885075570D+00
     .664591789246D-05  .567815487739D-02  .831484794617D-05  .515361916733D+04
     .237600000000D+06 -.931322574615D-08 -.249592890973D+01  .558793544769D-07
     .984414280600D+00  .233656250000D+03 -.207707141619D+01 -.785318425950D-08
     .114647632677D-09  .100000000000D+01  .161700000000D+04  .000000000000D+00
     .240000000000D+01  .000000000000D+00 -.884756445885D-08  .860000000000D+02
     .230406000000D+06  .400000000000D+01
15 11  1  4 18  0  0.0 -.164666678756D-03  .397903932026D-11  .000000000000D+00
     .970000000000D+02  .141437500000D+03  .446054294237D-08 -.683068259438D+00
     .729970633984D-05  .326157757081D-02  .878795981407D-05  .515388476753D+04
     .237600000000D+06  .484287738800D-07 -.256707910231D+01 -.763684511185D-07
     .951787788593D+00  .206375000000D+03 -.142068045979D+00 -.803854912355D-08
     .660741808263D-10  .100000000000D+01  .161700000000D+04  .000000000000D+00
     .240000000000D+01  .000000000000D+00 -.977888703346D-08  .970000000000D+02
     .230406000000D+06  .400000000000D+01
16 11  1  4 18  0  0.0 -.140013638884D-03 -.306954461848D-11  .000000000000D+00
     .650000000000D+02 -.133125000000D+03  .391266297812D-08  .120158144854D+01
    -.685453414917D-05  .599642354064D-02  .734068453312D-05  .515373251724D+04
     .237600000000D+06  .409781932831D-07 -.422649494236D+00  .894069671631D-07
     .974885297440D+00  .244031250000D+03 -.168383164143D+00 -.781389690874D-08
    -.203222750758D-09  .100000000000D+01  .161700000000D+04  .000000000000D+00
     .240000000000D+01  .000000000000D+00 -.977888703346D-08  .650000000000D+02
     .230406000000D+06  .400000000000D+01
17 11  1  4 18  0  0.0  .181056559086D-03  .682121026330D-12  .000000000000D+00
     .390000000000D+02 -.609375000000D+01  .447875798682D-08  .152003888601D+00
    -.314787030220D-06  .591911131050D-02  .105034559965D-04  .515370039558D+04
     .237600000000D+06 -.558793544769D-08  .619691953549D+00  .126659870148D-06
     .960933713969D+00  .179093750000D+03 -.248628758470D+01 -.790140055362D-08
     .644312552490D-09  .100000000000D+01  .161700000000D+04  .000000000000D+00
     .240000000000D+01  .000000000000D+00 -.102445483208D-07  .390000000000D+02
     .230406000000D+06  .400000000000D+01
18 11  1  4 18  0  0.0  .114108435810D-03  .216004991671D-11  .000000000000D+00
     .600000000000D+02 -.821875000000D+01  .513057085173D-08  .147189617283D+01
    -.366941094398D-06  .118334039580D-01  .102315098047D-04  .515375635529D+04
     .237600000000D+06 -.270083546638D-06  .270596044605D+01  .521540641785D-07
     .934785295320D+00  .172156250000D+03 -.227727265211D+01 -.830320300459D-08
    -.712172521987D-09  .100000000000D+01  .161700000000D+04  .000000000000D+00
     .240000000000D+01  .000000000000D+00 -.107102096081D-07  .600000000000D+02
     .230406000000D+06  .400000000000D+01
19 11  1  4 18  0  0.0 -.984063372016D-04 -.352429196937D-11  .000000000000D+00
     .400000000000D+02 -.206250000000D+01  .451054502516D-08 -.648035556848D+00
    -.188127160072D-06  .685673626140D-02  .100769102573D-04  .515360779190D+04
     .237600000000D+06  .113621354103D-06  .674107434160D+00 -.122934579849D-06
     .958435468284D+00  .182281250000D+03 -.161548287992D-01 -.791925844033D-08
     .620740142033D-09  .100000000000D+01  .161700000000D+04  .000000000000D+00
     .240000000000D+01  .000000000000D+00 -.149011611938D-07  .400000000000D+02
     .230406000000D+06  .400000000000D+01
20 11  1  4 18  0  0.0  .488664954901D-04 -.113686837722D-12  .000000000000D+00
     .114000000000D+03 -.378125000000D+01  .502270921600D-08  .185122259602D+01
    -.301748514175D-06  .458682933822D-02  .951811671257D-05  .515375988960D+04
     .237600000000D+06 -.465661287308D-07  .265203933373D+01 -.670552253723D-07
     .934793373553D+00  .180812500000D+03  .125676619000D+01 -.809998025383D-08
    -.608596779070D-09  .100000000000D+01  .161700000000D+04  .000000000000D+00
     .340000000000D+01  .000000000000D+00 -.791624188423D-08  .114000000000D+03
     .230406000000D+06  .400000000000D+01
21 11  1  4 18  0  0.0 -.114304944873D-03 -.272848410532D-11  .000000000000D+00
     .100000000000D+03  .496875000000D+01  .559737601032D-08  .273023863511D+01
     .104308128357D-06  .170911861351D-01  .474043190479D-05  .515358818245D+04
     .237600000000D+06 -.540167093277D-07  .165049084895D+01 -.260770320892D-06
     .931449012624D+00  .274656250000D+03 -.242233592337D+01 -.822105672573D-08
     .136434254463D-09  .100000000000D+01  .161700000000D+04  .000000000000D+00
     .240000000000D+01  .000000000000D+00 -.116415321827D-07  .100000000000D+03
     .230406000000D+06  .400000000000D+01
22 11  1  4 18  0  0.0  .155684072524D-03 -.682121026330D-12  .000000000000D+00
     .400000000000D+02 -.665625000000D+01  .523807532972D-08  .607642817505D+00
    -.266358256340D-06  .539354933426D-02  .989064574242D-05  .515371802330D+04
     .237600000000D+06 -.670552253723D-07  .271039857231D+01  .558793544769D-08
     .932481859121D+00  .175437500000D+03 -.193542797780D+01 -.832641825731D-08
    -.663956227871D-09  .100000000000D+01  .161700000000D+04  .000000000000D+00
     .240000000000D+01  .000000000000D+00 -.176951289177D-07  .400000000000D+02
     .230406000000D+06  .400000000000D+01
23 11  1  4 18  0  0.0  .334150623530D-03 -.227373675443D-11  .000000000000D+00
     .960000000000D+02  .133187500000D+03  .415017287136D-08 -.110338244488D+01
     .680796802044D-05  .692925509065D-02  .795349478722D-05  .515360979462D+04
     .237600000000D+06  .558793544769D-08 -.253882780037D+01 -.139698386192D-06
     .966165027097D+00  .229812500000D+03  .313224228395D+01 -.786461330700D-08
     .133219834855D-09  .100000000000D+01  .161700000000D+04  .000000000000D+00
     .240000000000D+01  .000000000000D+00 -.200234353542D-07  .960000000000D+02
     .230406000000D+06  .400000000000D+01
24 11  1  4 18  0  0.0  .353750772774D-03  .318323145621D-11  .000000000000D+00
     .710000000000D+02  .156250000000D+00  .534915138505D-08 -.171742347651D+01
    -.912696123123D-07  .574084161781D-02  .488199293613D-05  .515371937561D+04
     .237600000000D+06 -.540167093277D-07  .169292539037D+01 -.145286321640D-06
     .948063529783D+00  .280843750000D+03 -.330620763042D+00 -.840177853923D-08
     .750031241812D-10  .100000000000D+01  .161700000000D+04  .000000000000D+00
     .340000000000D+01  .000000000000D+00 -.139698386192D-08  .710000000000D+02
     .230406000000D+06  .400000000000D+01
25 11  1  4 18  0  0.0 -.617979094386D-04 -.216004991671D-11  .000000000000D+00
     .180000000000D+02 -.145281250000D+03  .423339062343D-08  .100354738678D+01
    -.749528408051D-05  .450357329100D-03  .657141208649D-05  .515372718620D+04
     .237600000000D+06  .540167093277D-07 -.468478601008D+00  .186264514923D-08
     .962512514178D+00  .251875000000D+03  .166347731172D+01 -.803783480808D-08
    -.188222125921D-09  .100000000000D+01  .161700000000D+04  .100000000000D+01
     .240000000000D+01  .000000000000D+00  .465661287308D-08  .180000000000D+02
     .230406000000D+06  .400000000000D+01
26 11  1  4 18  0  0.0 -.883089378476D-04 -.898126018001D-11  .000000000000D+00
     .970000000000D+02  .145343750000D+03  .365943814457D-08 -.138311085244D+01
     .774487853050D-05  .200296421535D-01  .747479498386D-05  .515364745522D+04
     .237600000000D+06  .376254320145D-06 -.247692354702D+01  .368803739548D-06
     .988949875240D+00  .250687500000D+03  .111859026829D+01 -.768603443990D-08
     .116433421348D-09  .100000000000D+01  .161700000000D+04  .000000000000D+00
     .240000000000D+01  .000000000000D+00 -.605359673500D-08  .970000000000D+02
     .230406000000D+06  .400000000000D+01
28 11  1  4 18  0  0.0  .128480605781D-04  .193267624127D-11  .000000000000D+00
     .190000000000D+02 -.130593750000D+03  .410088510404D-08  .748641985315D+00
    -.681169331074D-05  .167484520935D-01  .838190317154D-05  .515369422722D+04
     .237600000000D+06 -.234693288803D-06 -.415224397934D+00  .130385160446D-07
     .973160319531D+00  .229187500000D+03 -.192507085280D+01 -.813319592311D-08
    -.298583865788D-09  .100000000000D+01  .161700000000D+04  .000000000000D+00
     .240000000000D+01  .000000000000D+00 -.107102096081D-07  .190000000000D+02
     .230406000000D+06  .400000000000D+01
